start=new Date('2022-03-11T00:00:00.000Z').valueOf();
sats=[{"TIME_SYSTEM":"UTC","ELEMENT_SET_NO":"999","REV_AT_EPOCH":"6349","BSTAR":"0.00008360900000","TLE_LINE2":"2 47394  53.0533 100.4433 0001701  61.2512 298.8648 15.06386043 63492","DECAY_DATE":null,"SEMIMAJOR_AXIS":"6925.391","MEAN_MOTION_DOT":"0.00000964","CENTER_NAME":"EARTH","OBJECT_TYPE":"PAYLOAD","INCLINATION":"53.0533","ECCENTRICITY":"0.00017010","ARG_OF_PERICENTER":"61.2512","OBJECT_NAME":"STARLINK-2115","GP_ID":"198437905","SITE":"AFETR","MEAN_ELEMENT_THEORY":"SGP4","LAUNCH_DATE":"2021-01-20","RA_OF_ASC_NODE":"100.4433","OBJECT_ID":"2021-005AX","CLASSIFICATION_TYPE":"U","PERIAPSIS":"546.078","REF_FRAME":"TEME","EPHEMERIS_TYPE":"0","APOAPSIS":"548.434","NORAD_CAT_ID":"47394","MEAN_ANOMALY":"298.8648","COUNTRY_CODE":"US","FILE":"3354091","MEAN_MOTION":"15.06386043","RCS_SIZE":"LARGE","PERIOD":"95.593","EPOCH":"2022-03-10T18:28:31.250496","MEAN_MOTION_DDOT":"0.0000000000000","TLE_LINE1":"1 47394U 21005AX  22069.76980614  .00000964  00000-0  83609-4 0  9994"},{"MEAN_MOTION_DOT":"0.00005512","CENTER_NAME":"EARTH","OBJECT_TYPE":"PAYLOAD","INCLINATION":"53.0551","TIME_SYSTEM":"UTC","ELEMENT_SET_NO":"999","REV_AT_EPOCH":"6356","BSTAR":"0.00038861000000","TLE_LINE2":"2 47395  53.0551  95.2974 0002007  50.3449 309.7717 15.06402983 63561","DECAY_DATE":null,"SEMIMAJOR_AXIS":"6925.339","MEAN_ELEMENT_THEORY":"SGP4","LAUNCH_DATE":"2021-01-20","RA_OF_ASC_NODE":"95.2974","CLASSIFICATION_TYPE":"U","OBJECT_ID":"2021-005AY","ECCENTRICITY":"0.00020070","ARG_OF_PERICENTER":"50.3449","OBJECT_NAME":"STARLINK-2117","GP_ID":"198438653","SITE":"AFETR","REF_FRAME":"TEME","EPHEMERIS_TYPE":"0","APOAPSIS":"548.594","NORAD_CAT_ID":"47395","PERIAPSIS":"545.814","MEAN_ANOMALY":"309.7717","COUNTRY_CODE":"US","MEAN_MOTION":"15.06402983","FILE":"3354091","EPOCH":"2022-03-10T19:20:58.148448","RCS_SIZE":"LARGE","PERIOD":"95.592","MEAN_MOTION_DDOT":"0.0000000000000","TLE_LINE1":"1 47395U 21005AY  22069.80622857  .00005512  00000-0  38861-3 0  9995"},{"COUNTRY_CODE":"US","MEAN_ANOMALY":"302.4965","PERIOD":"95.592","RCS_SIZE":"LARGE","MEAN_MOTION_DDOT":"0.0000000000000","EPOCH":"2022-03-10T18:47:45.770496","TLE_LINE1":"1 47396U 21005AZ  22069.78316864  .00002810  00000-0  20746-3 0  9992","FILE":"3354091","MEAN_MOTION":"15.06401537","PERIAPSIS":"546.189","REF_FRAME":"TEME","APOAPSIS":"548.229","NORAD_CAT_ID":"47396","EPHEMERIS_TYPE":"0","OBJECT_NAME":"STARLINK-2118","ECCENTRICITY":"0.00014730","ARG_OF_PERICENTER":"57.6166","GP_ID":"198438400","SITE":"AFETR","LAUNCH_DATE":"2021-01-20","RA_OF_ASC_NODE":"105.3977","MEAN_ELEMENT_THEORY":"SGP4","CLASSIFICATION_TYPE":"U","OBJECT_ID":"2021-005AZ","REV_AT_EPOCH":"6342","BSTAR":"0.00020746000000","TIME_SYSTEM":"UTC","ELEMENT_SET_NO":"999","DECAY_DATE":null,"SEMIMAJOR_AXIS":"6925.344","TLE_LINE2":"2 47396  53.0537 105.3977 0001473  57.6166 302.4965 15.06401537 63428","MEAN_MOTION_DOT":"0.00002810","INCLINATION":"53.0537","CENTER_NAME":"EARTH","OBJECT_TYPE":"PAYLOAD"},{"REF_FRAME":"TEME","EPHEMERIS_TYPE":"0","NORAD_CAT_ID":"47397","APOAPSIS":"548.593","PERIAPSIS":"545.887","MEAN_ANOMALY":"312.3416","COUNTRY_CODE":"US","FILE":"3354091","MEAN_MOTION":"15.06391375","TLE_LINE1":"1 47397U 21005BA  22069.58137270  .00003777  00000-0  27237-3 0  9998","RCS_SIZE":"LARGE","PERIOD":"95.593","MEAN_MOTION_DDOT":"0.0000000000000","EPOCH":"2022-03-10T13:57:10.601280","MEAN_MOTION_DOT":"0.00003777","OBJECT_TYPE":"PAYLOAD","CENTER_NAME":"EARTH","INCLINATION":"53.0524","ELEMENT_SET_NO":"999","TIME_SYSTEM":"UTC","BSTAR":"0.00027237000000","REV_AT_EPOCH":"6297","TLE_LINE2":"2 47397  53.0524 136.2981 0001954  47.7739 312.3416 15.06391375 62971","SEMIMAJOR_AXIS":"6925.375","DECAY_DATE":null,"MEAN_ELEMENT_THEORY":"SGP4","RA_OF_ASC_NODE":"136.2981","LAUNCH_DATE":"2021-01-20","CLASSIFICATION_TYPE":"U","OBJECT_ID":"2021-005BA","ARG_OF_PERICENTER":"47.7739","ECCENTRICITY":"0.00019540","OBJECT_NAME":"STARLINK-2119","SITE":"AFETR","GP_ID":"198437156"},{"MEAN_MOTION_DOT":"0.00002814","CENTER_NAME":"EARTH","OBJECT_TYPE":"PAYLOAD","INCLINATION":"53.0545","TIME_SYSTEM":"UTC","ELEMENT_SET_NO":"999","REV_AT_EPOCH":"6342","BSTAR":"0.00020772000000","TLE_LINE2":"2 47398  53.0545 105.2211 0001579  61.2619 298.8529 15.06397837 63421","DECAY_DATE":null,"SEMIMAJOR_AXIS":"6925.355","MEAN_ELEMENT_THEORY":"SGP4","LAUNCH_DATE":"2021-01-20","RA_OF_ASC_NODE":"105.2211","CLASSIFICATION_TYPE":"U","OBJECT_ID":"2021-005BB","ECCENTRICITY":"0.00015790","ARG_OF_PERICENTER":"61.2619","OBJECT_NAME":"STARLINK-2120","GP_ID":"198437406","SITE":"AFETR","REF_FRAME":"TEME","EPHEMERIS_TYPE":"0","APOAPSIS":"548.314","NORAD_CAT_ID":"47398","PERIAPSIS":"546.127","MEAN_ANOMALY":"298.8529","COUNTRY_CODE":"US","FILE":"3354091","MEAN_MOTION":"15.06397837","MEAN_MOTION_DDOT":"0.0000000000000","RCS_SIZE":"LARGE","PERIOD":"95.592","EPOCH":"2022-03-10T19:40:51.556224","TLE_LINE1":"1 47398U 21005BB  22069.82004116  .00002814  00000-0  20772-3 0  9996"},{"MEAN_ELEMENT_THEORY":"SGP4","LAUNCH_DATE":"2021-01-20","RA_OF_ASC_NODE":"115.1777","OBJECT_ID":"2021-005BC","CLASSIFICATION_TYPE":"U","ECCENTRICITY":"0.00015640","ARG_OF_PERICENTER":"53.2959","OBJECT_NAME":"STARLINK-2121","GP_ID":"198438154","SITE":"AFETR","MEAN_MOTION_DOT":"0.00001894","CENTER_NAME":"EARTH","OBJECT_TYPE":"PAYLOAD","INCLINATION":"53.0556","TIME_SYSTEM":"UTC","ELEMENT_SET_NO":"999","REV_AT_EPOCH":"6328","BSTAR":"0.00014604000000","TLE_LINE2":"2 47399  53.0556 115.1777 0001564  53.2959 306.8174 15.06395510 63289","DECAY_DATE":null,"SEMIMAJOR_AXIS":"6925.362","MEAN_ANOMALY":"306.8174","COUNTRY_CODE":"US","MEAN_MOTION":"15.06395510","FILE":"3354091","RCS_SIZE":"LARGE","PERIOD":"95.592","MEAN_MOTION_DDOT":"0.0000000000000","EPOCH":"2022-03-10T19:59:24.145440","TLE_LINE1":"1 47399U 21005BC  22069.83291835  .00001894  00000-0  14604-3 0  9998","REF_FRAME":"TEME","EPHEMERIS_TYPE":"0","APOAPSIS":"548.310","NORAD_CAT_ID":"47399","PERIAPSIS":"546.144"},{"COUNTRY_CODE":"US","MEAN_ANOMALY":"301.8852","TLE_LINE1":"1 47400U 21005BD  22069.48461250  .00004160  00000-0  29811-3 0  9997","RCS_SIZE":"LARGE","PERIOD":"95.593","EPOCH":"2022-03-10T11:37:50.520000","MEAN_MOTION_DDOT":"0.0000000000000","FILE":"3353482","MEAN_MOTION":"15.06387657","REF_FRAME":"TEME","NORAD_CAT_ID":"47400","APOAPSIS":"548.553","EPHEMERIS_TYPE":"0","PERIAPSIS":"545.950","RA_OF_ASC_NODE":"96.7224","LAUNCH_DATE":"2021-01-20","MEAN_ELEMENT_THEORY":"SGP4","OBJECT_ID":"2021-005BD","CLASSIFICATION_TYPE":"U","OBJECT_NAME":"STARLINK-2122","ARG_OF_PERICENTER":"58.2320","ECCENTRICITY":"0.00018790","SITE":"AFETR","GP_ID":"198399383","MEAN_MOTION_DOT":"0.00004160","INCLINATION":"53.0545","OBJECT_TYPE":"PAYLOAD","CENTER_NAME":"EARTH","BSTAR":"0.00029811000000","REV_AT_EPOCH":"6351","ELEMENT_SET_NO":"999","TIME_SYSTEM":"UTC","SEMIMAJOR_AXIS":"6925.386","DECAY_DATE":null,"TLE_LINE2":"2 47400  53.0545  96.7224 0001879  58.2320 301.8852 15.06387657 63514"},{"OBJECT_TYPE":"PAYLOAD","CENTER_NAME":"EARTH","INCLINATION":"53.0550","MEAN_MOTION_DOT":"0.00003230","TLE_LINE2":"2 47401  53.0550 105.1734 0001790  50.6269 309.4878 15.06397738 63436","SEMIMAJOR_AXIS":"6925.355","DECAY_DATE":null,"ELEMENT_SET_NO":"999","TIME_SYSTEM":"UTC","BSTAR":"0.00023563000000","REV_AT_EPOCH":"6343","OBJECT_ID":"2021-005BE","CLASSIFICATION_TYPE":"U","MEAN_ELEMENT_THEORY":"SGP4","RA_OF_ASC_NODE":"105.1734","LAUNCH_DATE":"2021-01-20","SITE":"AFETR","GP_ID":"198437656","ARG_OF_PERICENTER":"50.6269","ECCENTRICITY":"0.00017900","OBJECT_NAME":"STARLINK-2123","EPHEMERIS_TYPE":"0","NORAD_CAT_ID":"47401","APOAPSIS":"548.460","REF_FRAME":"TEME","PERIAPSIS":"545.981","FILE":"3354091","MEAN_MOTION":"15.06397738","TLE_LINE1":"1 47401U 21005BE  22069.83478637  .00003230  00000-0  23563-3 0  9999","EPOCH":"2022-03-10T20:02:05.542368","RCS_SIZE":"LARGE","PERIOD":"95.592","MEAN_MOTION_DDOT":"0.0000000000000","MEAN_ANOMALY":"309.4878","COUNTRY_CODE":"US"},{"TLE_LINE1":"1 47402U 21005BF  22069.78686755  .00002088  00000-0  15902-3 0  9994","EPOCH":"2022-03-10T18:53:05.356320","RCS_SIZE":"LARGE","PERIOD":"95.592","MEAN_MOTION_DDOT":"0.0000000000000","MEAN_MOTION":"15.06397475","FILE":"3354091","COUNTRY_CODE":"US","MEAN_ANOMALY":"310.7450","NORAD_CAT_ID":"47402","APOAPSIS":"548.524","EPHEMERIS_TYPE":"0","REF_FRAME":"TEME","PERIAPSIS":"545.919","OBJECT_ID":"2021-005BF","CLASSIFICATION_TYPE":"U","RA_OF_ASC_NODE":"105.3753","LAUNCH_DATE":"2021-01-20","MEAN_ELEMENT_THEORY":"SGP4","SITE":"AFETR","GP_ID":"198437906","OBJECT_NAME":"STARLINK-2124","ARG_OF_PERICENTER":"49.3702","ECCENTRICITY":"0.00018810","INCLINATION":"53.0540","OBJECT_TYPE":"PAYLOAD","CENTER_NAME":"EARTH","MEAN_MOTION_DOT":"0.00002088","SEMIMAJOR_AXIS":"6925.356","DECAY_DATE":null,"TLE_LINE2":"2 47402  53.0540 105.3753 0001881  49.3702 310.7450 15.06397475 63425","BSTAR":"0.00015902000000","REV_AT_EPOCH":"6342","ELEMENT_SET_NO":"999","TIME_SYSTEM":"UTC"},{"PERIAPSIS":"546.091","REF_FRAME":"TEME","EPHEMERIS_TYPE":"0","APOAPSIS":"548.442","NORAD_CAT_ID":"47403","MEAN_ANOMALY":"297.2826","COUNTRY_CODE":"US","FILE":"3354091","MEAN_MOTION":"15.06382729","RCS_SIZE":"LARGE","PERIOD":"95.593","MEAN_MOTION_DDOT":"0.0000000000000","EPOCH":"2022-03-10T19:03:42.592608","TLE_LINE1":"1 47403U 21005BG  22069.79424297 -.00000076  00000-0  13825-4 0  9996","TIME_SYSTEM":"UTC","ELEMENT_SET_NO":"999","REV_AT_EPOCH":"6342","BSTAR":"0.00001382500000","TLE_LINE2":"2 47403  53.0539 105.3524 0001697  62.8336 297.2826 15.06382729 63420","DECAY_DATE":null,"SEMIMAJOR_AXIS":"6925.401","MEAN_MOTION_DOT":"-0.00000076","CENTER_NAME":"EARTH","OBJECT_TYPE":"PAYLOAD","INCLINATION":"53.0539","ECCENTRICITY":"0.00016970","ARG_OF_PERICENTER":"62.8336","OBJECT_NAME":"STARLINK-2127","GP_ID":"198438654","SITE":"AFETR","MEAN_ELEMENT_THEORY":"SGP4","LAUNCH_DATE":"2021-01-20","RA_OF_ASC_NODE":"105.3524","CLASSIFICATION_TYPE":"U","OBJECT_ID":"2021-005BG"}];
